{
    "links": {
        "self": "http://www.neowsapp.com/rest/v1/neo/54016960?api_key=iIulBulltgU6a56xZRHN4H3l9WmuAYTsLGpBGhQ2"
    },
    "id": "54016960",
    "neo_reference_id": "54016960",
    "name": "(2020 JK)",
    "designation": "2020 JK",
    "nasa_jpl_url": "http://ssd.jpl.nasa.gov/sbdb.cgi?sstr=54016960",
    "absolute_magnitude_h": 24.009,
    "estimated_diameter": {
        "kilometers": {
            "estimated_diameter_min": 0.0419522228,
            "estimated_diameter_max": 0.093808022
        },
        "meters": {
            "estimated_diameter_min": 41.9522228133,
            "estimated_diameter_max": 93.8080220178
        },
        "miles": {
            "estimated_diameter_min": 0.0260678946,
            "estimated_diameter_max": 0.0582895844
        },
        "feet": {
            "estimated_diameter_min": 137.6385306949,
            "estimated_diameter_max": 307.769110957
        }
    },
    "is_potentially_hazardous_asteroid": false,
    "close_approach_data": [
        {
            "close_approach_date": "2020-05-14",
            "close_approach_date_full": "2020-May-14 08:26",
            "epoch_date_close_approach": 1589444760000,
            "relative_velocity": {
                "kilometers_per_second": "20.1352985822",
                "kilometers_per_hour": "72487.0748960982",
                "miles_per_hour": "45040.6493986339"
            },
            "miss_distance": {
                "astronomical": "0.0380118893",
                "lunar": "14.7866249377",
                "kilometers": "5686497.673955791",
                "miles": "3533425.8074642758"
            },
            "orbiting_body": "Earth"
        },
        {
            "close_approach_date": "2020-06-09",
            "close_approach_date_full": "2020-Jun-09 07:22",
            "epoch_date_close_approach": 1591687320000,
            "relative_velocity": {
                "kilometers_per_second": "20.6957334831",
                "kilometers_per_hour": "74504.6405392777",
                "miles_per_hour": "46294.2862284195"
            },
            "miss_distance": {
                "astronomical": "0.1235761881",
                "lunar": "48.0711371709",
                "kilometers": "18486734.522479347",
                "miles": "11487124.1672431086"
            },
            "orbiting_body": "Venus"
        }
    ],
    "orbital_data": {
        "orbit_id": "1",
        "orbit_determination_date": "2020-05-04 13:12:03",
        "first_observation_date": "2020-05-02",
        "last_observation_date": "2020-05-04",
        "data_arc_in_days": 2,
        "observations_used": 14,
        "orbit_uncertainty": "9",
        "minimum_orbit_intersection": ".00199102",
        "jupiter_tisserand_invariant": "3.566",
        "epoch_osculation": "2458972.5",
        "eccentricity": ".6620877571663603",
        "semi_major_axis": "1.968064011730529",
        "inclination": "1.097797744505544",
        "ascending_node_longitude": "241.8245952584863",
        "orbital_period": "1008.45670221916",
        "perihelion_distance": ".6650329242440336",
        "perihelion_argument": "76.11542971975682",
        "aphelion_distance": "3.271095099217024",
        "perihelion_time": "2459031.618921257412",
        "mean_anomaly": "338.895661453948",
        "mean_motion": ".3569811169957043",
        "equinox": "J2000",
        "orbit_class": {
            "orbit_class_type": "APO",
            "orbit_class_description": "Near-Earth asteroid orbits which cross the Earth’s orbit similar to that of 1862 Apollo",
            "orbit_class_range": "a (semi-major axis) > 1.0 AU; q (perihelion) < 1.017 AU"
        }
    },
    "is_sentry_object": false
}